CCSDS_OMM_VERS,COMMENT,CREATION_DATE,ORIGINATOR,OBJECT_NAME,OBJECT_ID,CENTER_NAME,REF_FRAME,TIME_SYSTEM,MEAN_ELEMENT_THEORY,EPOCH,MEAN_MOTION,ECCENTRICITY,INCLINATION,RA_OF_ASC_NODE,ARG_OF_PERICENTER,MEAN_ANOMALY,EPHEMERIS_TYPE,CLASSIFICATION_TYPE,NORAD_CAT_ID,ELEMENT_SET_NO,REV_AT_EPOCH,BSTAR,MEAN_MOTION_DOT,MEAN_MOTION_DDOT,SEMIMAJOR_AXIS,PERIOD,APOAPSIS,PERIAPSIS,OBJECT_TYPE,RCS_SIZE,COUNTRY_CODE,LAUNCH_DATE,SITE,DECAY_DATE,FILE,GP_ID,TLE_LINE0,TLE_LINE1,TLE_LINE2
"3.0","GENERATED VIA SPACE-TRACK.ORG API","2026-03-17T17:21:16","18 SPCS","NOAA 16 DEB","2000-055PP","EARTH","TEME","UTC","SGP4","2026-03-17T13:40:04.031040","14.96330561","0.00129283","98.9495","297.3477","317.4232","42.5982","0","U","41709","999","52117","0.00327224940000","0.00037186","0.0000000000000","6956.383","96.235","587.241","569.254","DEBRIS","SMALL","US","2000-09-21","AFWTR","","5088782","316220017","0 NOAA 16 DEB","1 41709U 00055PP  26076.56949110  .00037186  00000-0  32722-2 0  9990","2 41709  98.9495 297.3477 0012928 317.4232  42.5982 14.96330561521174"
"3.0","GENERATED VIA SPACE-TRACK.ORG API","2026-03-25T17:29:05","18 SPCS","NOAA 16 DEB","2000-055PQ","EARTH","TEME","UTC","SGP4","2026-03-25T07:48:07.184160","14.53871598","0.00262386","98.9491","274.6368","346.5714","13.4779","0","U","41710","999","51697","0.00158324340000","0.00006639","0.0000000000000","7091.169","99.046","731.640","694.427","DEBRIS","SMALL","US","2000-09-21","AFWTR","","5096884","317015027","0 NOAA 16 DEB","1 41710U 00055PQ  26084.32508315  .00006639  00000-0  15832-2 0  9995","2 41710  98.9491 274.6368 0026239 346.5714  13.4779 14.53871598516973"
"3.0","GENERATED VIA SPACE-TRACK.ORG API","2026-03-25T17:29:05","18 SPCS","NOAA 16 DEB","2000-055PR","EARTH","TEME","UTC","SGP4","2026-03-25T13:30:38.681280","14.48007084","0.00103849","98.7871","208.2964","85.0414","275.1963","0","U","41711","999","51602","0.00262513510000","0.00009722","0.0000000000000","7110.302","99.447","739.551","724.783","DEBRIS","SMALL","US","2000-09-21","AFWTR","","5096884","317015528","0 NOAA 16 DEB","1 41711U 00055PR  26084.56294770  .00009722  00000-0  26251-2 0  9992","2 41711  98.7871 208.2964 0010385  85.0414 275.1963 14.48007084516029"
"3.0","GENERATED VIA SPACE-TRACK.ORG API","2026-03-25T17:29:05","18 SPCS","NOAA 16 DEB","2000-055PS","EARTH","TEME","UTC","SGP4","2026-03-25T14:26:47.179680","14.61018686","0.00228253","98.8359","220.5898","325.9596","34.0137","0","U","41712","999","51492","0.00399091330000","0.00019655","0.0000000000000","7068.024","98.561","706.022","673.756","DEBRIS","SMALL","US","2000-09-21","AFWTR","","5096884","317015028","0 NOAA 16 DEB","1 41712U 00055PS  26084.60193495  .00019655  00000-0  39909-2 0  9990","2 41712  98.8359 220.5898 0022825 325.9596  34.0137 14.61018686514921"
"3.0","GENERATED VIA SPACE-TRACK.ORG API","2026-03-25T04:32:27","18 SPCS","NOAA 16 DEB","2000-055PX","EARTH","TEME","UTC","SGP4","2026-03-24T20:45:07.519968","14.53764574","0.00111825","98.8268","225.8458","347.1068","12.9839","0","U","41717","999","51724","0.00238267770000","0.00009965","0.0000000000000","7091.517","99.053","721.312","705.451","DEBRIS","SMALL","US","2000-09-21","AFWTR","","5096755","316982337","0 NOAA 16 DEB","1 41717U 00055PX  26083.86467037  .00009965  00000-0  23827-2 0  9993","2 41717  98.8268 225.8458 0011183 347.1068  12.9839 14.53764574517247"
"3.0","GENERATED VIA SPACE-TRACK.ORG API","2026-03-25T17:29:05","18 SPCS","WORLDVIEW 2 DEB","2009-055K","EARTH","TEME","UTC","SGP4","2026-03-25T05:01:55.370496","14.58098666","0.00091477","98.3481","178.1103","112.9046","247.3119","0","U","41742","999","50987","0.00094249853000","0.00004296","0.0000000000000","7077.457","98.759","705.796","692.848","DEBRIS","SMALL","US","2009-10-08","AFWTR","","5096884","317015537","0 WORLDVIEW 2 DEB","1 41742U 09055K   26084.20966864  .00004296  00000-0  94250-3 0  9992","2 41742  98.3481 178.1103 0009148 112.9046 247.3119 14.58098666509878"
"3.0","GENERATED VIA SPACE-TRACK.ORG API","2026-03-25T17:29:05","18 SPCS","PSLV DEB","2016-059K","EARTH","TEME","UTC","SGP4","2026-03-25T00:45:03.487104","14.79252941","0.00223517","97.7843","108.0607","67.0986","293.2583","0","U","41792","999","50843","0.00044518908000","0.00003272","0.0000000000000","7009.820","97.346","647.353","616.017","DEBRIS","LARGE","IND","2016-09-26","SRI","","5096884","317015047","0 PSLV DEB","1 41792U 16059K   26084.03129036  .00003272  00000-0  44519-3 0  9998","2 41792  97.7843 108.0607 0022352  67.0986 293.2583 14.79252941508431"
"3.0","GENERATED VIA SPACE-TRACK.ORG API","2026-03-25T17:29:05","18 SPCS","FENGYUN 1C DEB","1999-025EYF","EARTH","TEME","UTC","SGP4","2026-03-25T07:49:18.498720","14.55782476","0.00376874","98.9194","224.0117","219.8708","139.9718","0","U","41828","999","48954","0.00369342640000","0.00016314","0.0000000000000","7084.962","98.916","733.528","680.126","DEBRIS","SMALL","PRC","1999-05-10","TSC","","5096884","317015055","0 FENGYUN 1C DEB","1 41828U 99025EYF 26084.32590855  .00016314  00000-0  36934-2 0  9997","2 41828  98.9194 224.0117 0037687 219.8708 139.9718 14.55782476489545"
"3.0","GENERATED VIA SPACE-TRACK.ORG API","2026-03-25T17:29:05","18 SPCS","DMSP 5D-2 F13 DEB","1995-015GC","EARTH","TEME","UTC","SGP4","2026-03-25T15:18:22.633344","14.71678628","0.00234009","98.5162","151.2582","280.8154","79.0418","0","U","42262","999","57408","0.00244519150000","0.00015275","0.0000000000000","7033.851","97.847","672.176","639.257","DEBRIS","SMALL","US","1995-03-24","AFWTR","","5096884","317015177","0 DMSP 5D-2 F13 DEB","1 42262U 95015GC  26084.63776196  .00015275  00000-0  24452-2 0  9990","2 42262  98.5162 151.2582 0023401 280.8154  79.0418 14.71678628574084"
"3.0","GENERATED VIA SPACE-TRACK.ORG API","2026-03-25T17:29:05","18 SPCS","DMSP 5D-2 F13 DEB","1995-015GM","EARTH","TEME","UTC","SGP4","2026-03-25T03:39:59.153472","14.84138922","0.00059039","98.6786","160.5165","188.3224","171.7891","0","U","42271","999","55978","0.00442482160000","0.00037100","0.0000000000000","6994.427","97.026","620.421","612.162","DEBRIS","SMALL","US","1995-03-24","AFWTR","","5096884","317015180","0 DMSP 5D-2 F13 DEB","1 42271U 95015GM  26084.15276798  .00037100  00000-0  44248-2 0  9996","2 42271  98.6786 160.5165 0005904 188.3224 171.7891 14.84138922559782"
"3.0","GENERATED VIA SPACE-TRACK.ORG API","2026-03-25T17:29:05","18 SPCS","DMSP 5D-2 F13 DEB","1995-015GU","EARTH","TEME","UTC","SGP4","2026-03-25T00:36:27.589248","14.54323861","0.00268502","98.8739","112.1414","144.2028","216.0973","0","U","42278","999","55547","0.00275937410000","0.00011736","0.0000000000000","7089.698","99.015","730.599","692.527","DEBRIS","SMALL","US","1995-03-24","AFWTR","","5096884","317015682","0 DMSP 5D-2 F13 DEB","1 42278U 95015GU  26084.02531932  .00011736  00000-0  27594-2 0  9995","2 42278  98.8739 112.1414 0026850 144.2028 216.0973 14.54323861555476"
"3.0","GENERATED VIA SPACE-TRACK.ORG API","2025-09-18T03:57:06","18 SPCS","DMSP 5D-2 F13 DEB","1995-015GV","EARTH","TEME","UTC","SGP4","2025-09-17T09:38:49.096896","14.77266932","0.00118120","98.7433","319.9736","165.8503","194.3038","0","U","42279","999","54219","0.00392496750000","0.00027917","0.0000000000000","7016.101","97.477","646.254","629.679","DEBRIS","SMALL","US","1995-03-24","AFWTR","","4823497","297779174","0 DMSP 5D-2 F13 DEB","1 42279U 95015GV  25260.40195714  .00027917  00000-0  39250-2 0  9997","2 42279  98.7433 319.9736 0011812 165.8503 194.3038 14.77266932542195"
"3.0","GENERATED VIA SPACE-TRACK.ORG API","2026-03-25T17:29:05","18 SPCS","DMSP 5D-2 F13 DEB","1995-015GX","EARTH","TEME","UTC","SGP4","2026-03-25T15:14:00.057696","14.61631826","0.00243513","98.5437","149.6154","296.1983","63.6713","0","U","42281","999","57159","0.00196600770000","0.00009779","0.0000000000000","7066.047","98.520","705.119","670.705","DEBRIS","SMALL","US","1995-03-24","AFWTR","","5096884","317015683","0 DMSP 5D-2 F13 DEB","1 42281U 95015GX  26084.63472289  .00009779  00000-0  19660-2 0  9994","2 42281  98.5437 149.6154 0024351 296.1983  63.6713 14.61631826571599"
"3.0","GENERATED VIA SPACE-TRACK.ORG API","2026-03-25T17:29:05","18 SPCS","DMSP 5D-2 F13 DEB","1995-015HM","EARTH","TEME","UTC","SGP4","2026-03-25T15:01:35.519520","14.84811301","0.00095186","98.8470","152.3409","311.6678","48.3718","0","U","42295","999","56384","0.00642987310000","0.00054994","0.0000000000000","6992.315","96.982","620.836","607.525","DEBRIS","SMALL","US","1995-03-24","AFWTR","","5096884","317015686","0 DMSP 5D-2 F13 DEB","1 42295U 95015HM  26084.62610555  .00054994  00000-0  64299-2 0  9995","2 42295  98.8470 152.3409 0009519 311.6678  48.3718 14.84811301563848"
"3.0","GENERATED VIA SPACE-TRACK.ORG API","2026-03-24T04:52:42","18 SPCS","DMSP 5D-2 F13 DEB","1995-015HR","EARTH","TEME","UTC","SGP4","2026-03-20T03:48:48.194496","14.86035829","0.00140632","98.6971","155.7823","197.8637","162.2084","0","U","42299","999","54786","0.00434942650000","0.00038247","0.0000000000000","6988.473","96.902","620.167","600.510","DEBRIS","SMALL","US","1995-03-24","AFWTR","","5095836","316897812","0 DMSP 5D-2 F13 DEB","1 42299U 95015HR  26079.15889114  .00038247  00000-0  43494-2 0  9997","2 42299  98.6971 155.7823 0014063 197.8637 162.2084 14.86035829547863"
"3.0","GENERATED VIA SPACE-TRACK.ORG API","2026-03-24T04:52:42","18 SPCS","DMSP 5D-2 F13 DEB","1995-015JA","EARTH","TEME","UTC","SGP4","2026-03-23T20:22:26.786496","14.59327143","0.00180931","98.8711","132.1488","125.5769","234.7118","0","U","42308","999","56541","0.00370012250000","0.00017526","0.0000000000000","7073.484","98.676","708.148","682.551","DEBRIS","SMALL","US","1995-03-24","AFWTR","","5095836","316897813","0 DMSP 5D-2 F13 DEB","1 42308U 95015JA  26082.84892114  .00017526  00000-0  37001-2 0  9996","2 42308  98.8711 132.1488 0018093 125.5769 234.7118 14.59327143565412"
